{
  "type": "FeatureCollection",
  "features": [
    {
      "type": "Feature",
      "properties": {
        "norad_id": 66499,
        "name": "STARLINK-35816",
        "group": "last-30-days",
        "lat": 29.858924831289016,
        "lon": -82.18750225427767,
        "alt_km": 420.766792159694,
        "timestamp": "2025-12-10T21:43:20.861638+00:00",
        "meta_object_name": "STARLINK-35816",
        "meta_object_id": "2025-263Q",
        "meta_epoch": "2025-12-10T14:00:03.000384",
        "meta_mean_motion": 15.48767862,
        "meta_eccentricity": 0.00012732,
        "meta_inclination": 43.0006,
        "meta_ra_of_asc_node": 137.7153,
        "meta_arg_of_pericenter": 271.433,
        "meta_mean_anomaly": 226.485,
        "meta_ephemeris_type": 0,
        "meta_classification_type": "U",
        "meta_norad_cat_id": 66499,
        "meta_element_set_no": 999,
        "meta_rev_at_epoch": 528,
        "meta_bstar": -0.043093845,
        "meta_mean_motion_dot": -0.02103765,
        "meta_mean_motion_ddot": 0,
        "tle_line1": "1 66499U 25263Q   25344.58336806 -.02103765  00000+0 -43094-1 0  9995",
        "tle_line2": "2 66499  43.0006 137.7153 0001273 271.4330 226.4850 15.48767862  5285"
      },
      "geometry": {
        "type": "Point",
        "coordinates": [
          -82.18750225427767,
          29.858924831289016
        ]
      }
    },
    {
      "type": "Feature",
      "properties": {
        "norad_id": 66500,
        "name": "STARLINK-35894",
        "group": "last-30-days",
        "lat": 41.883504896872296,
        "lon": -149.80839198753094,
        "alt_km": 424.7600936943827,
        "timestamp": "2025-12-10T21:43:20.861649+00:00",
        "meta_object_name": "STARLINK-35894",
        "meta_object_id": "2025-263R",
        "meta_epoch": "2025-12-10T14:00:03.000384",
        "meta_mean_motion": 15.46666825,
        "meta_eccentricity": 0.00015536,
        "meta_inclination": 43.0004,
        "meta_ra_of_asc_node": 137.8446,
        "meta_arg_of_pericenter": 279.8028,
        "meta_mean_anomaly": 165.7212,
        "meta_ephemeris_type": 0,
        "meta_classification_type": "U",
        "meta_norad_cat_id": 66500,
        "meta_element_set_no": 999,
        "meta_rev_at_epoch": 528,
        "meta_bstar": -0.040267692,
        "meta_mean_motion_dot": -0.01853384,
        "meta_mean_motion_ddot": 0,
        "tle_line1": "1 66500U 25263R   25344.58336806 -.01853384  00000+0 -40268-1 0  9996",
        "tle_line2": "2 66500  43.0004 137.8446 0001553 279.8028 165.7212 15.46666825  5281"
      },
      "geometry": {
        "type": "Point",
        "coordinates": [
          -149.80839198753094,
          41.883504896872296
        ]
      }
    },
    {
      "type": "Feature",
      "properties": {
        "norad_id": 66501,
        "name": "STARLINK-35897",
        "group": "last-30-days",
        "lat": 26.44024795685007,
        "lon": -76.42655305690386,
        "alt_km": 412.659156304062,
        "timestamp": "2025-12-10T21:43:20.861659+00:00",
        "meta_object_name": "STARLINK-35897",
        "meta_object_id": "2025-263S",
        "meta_epoch": "2025-12-10T14:00:03.000384",
        "meta_mean_motion": 15.50941487,
        "meta_eccentricity": 0.00014145,
        "meta_inclination": 43.0005,
        "meta_ra_of_asc_node": 137.7074,
        "meta_arg_of_pericenter": 260.9483,
        "meta_mean_anomaly": 240.1616,
        "meta_ephemeris_type": 0,
        "meta_classification_type": "U",
        "meta_norad_cat_id": 66501,
        "meta_element_set_no": 999,
        "meta_rev_at_epoch": 529,
        "meta_bstar": -0.020794197,
        "meta_mean_motion_dot": -0.01115987,
        "meta_mean_motion_ddot": 0,
        "tle_line1": "1 66501U 25263S   25344.58336806 -.01115987  00000+0 -20794-1 0  9999",
        "tle_line2": "2 66501  43.0005 137.7074 0001414 260.9483 240.1616 15.50941487  5293"
      },
      "geometry": {
        "type": "Point",
        "coordinates": [
          -76.42655305690386,
          26.44024795685007
        ]
      }
    },
    {
      "type": "Feature",
      "properties": {
        "norad_id": 66502,
        "name": "STARLINK-35922",
        "group": "last-30-days",
        "lat": 22.969502415408115,
        "lon": -71.24422155776664,
        "alt_km": 412.132797118953,
        "timestamp": "2025-12-10T21:43:20.861671+00:00",
        "meta_object_name": "STARLINK-35922",
        "meta_object_id": "2025-263T",
        "meta_epoch": "2025-12-10T14:00:03.000384",
        "meta_mean_motion": 15.50631348,
        "meta_eccentricity": 0.00014898,
        "meta_inclination": 43.0006,
        "meta_ra_of_asc_node": 137.6925,
        "meta_arg_of_pericenter": 270.7717,
        "meta_mean_anomaly": 236.1448,
        "meta_ephemeris_type": 0,
        "meta_classification_type": "U",
        "meta_norad_cat_id": 66502,
        "meta_element_set_no": 999,
        "meta_rev_at_epoch": 529,
        "meta_bstar": -0.0023533407,
        "meta_mean_motion_dot": -0.0013628,
        "meta_mean_motion_ddot": 0,
        "tle_line1": "1 66502U 25263T   25344.58336806 -.00136280  00000+0 -23533-2 0  9993",
        "tle_line2": "2 66502  43.0006 137.6925 0001489 270.7717 236.1448 15.50631348  5290"
      },
      "geometry": {
        "type": "Point",
        "coordinates": [
          -71.24422155776664,
          22.969502415408115
        ]
      }
    },
    {
      "type": "Feature",
      "properties": {
        "norad_id": 66503,
        "name": "STARLINK-35917",
        "group": "last-30-days",
        "lat": 20.60740339321568,
        "lon": -67.99707834218634,
        "alt_km": 412.4425840619806,
        "timestamp": "2025-12-10T21:43:20.861681+00:00",
        "meta_object_name": "STARLINK-35917",
        "meta_object_id": "2025-263U",
        "meta_epoch": "2025-12-10T14:00:03.000384",
        "meta_mean_motion": 15.50631725,
        "meta_eccentricity": 0.00015344,
        "meta_inclination": 43.0007,
        "meta_ra_of_asc_node": 137.6833,
        "meta_arg_of_pericenter": 268.9427,
        "meta_mean_anomaly": 241.808,
        "meta_ephemeris_type": 0,
        "meta_classification_type": "U",
        "meta_norad_cat_id": 66503,
        "meta_element_set_no": 999,
        "meta_rev_at_epoch": 529,
        "meta_bstar": -0.002346175,
        "meta_mean_motion_dot": -0.00135875,
        "meta_mean_motion_ddot": 0,
        "tle_line1": "1 66503U 25263U   25344.58336806 -.00135875  00000+0 -23462-2 0  9994",
        "tle_line2": "2 66503  43.0007 137.6833 0001534 268.9427 241.8080 15.50631725  5292"
      },
      "geometry": {
        "type": "Point",
        "coordinates": [
          -67.99707834218634,
          20.60740339321568
        ]
      }
    },
    {
      "type": "Feature",
      "properties": {
        "norad_id": 66504,
        "name": "STARLINK-35916",
        "group": "last-30-days",
        "lat": -37.62983500569388,
        "lon": 81.37832089870123,
        "alt_km": 445.88544316799744,
        "timestamp": "2025-12-10T21:43:20.861693+00:00",
        "meta_object_name": "STARLINK-35916",
        "meta_object_id": "2025-263V",
        "meta_epoch": "2025-12-09T22:39:36.400320",
        "meta_mean_motion": 15.40719058,
        "meta_eccentricity": 0.00015372,
        "meta_inclination": 43.0001,
        "meta_ra_of_asc_node": 142.7409,
        "meta_arg_of_pericenter": 268.6806,
        "meta_mean_anomaly": 91.3875,
        "meta_ephemeris_type": 0,
        "meta_classification_type": "U",
        "meta_norad_cat_id": 66504,
        "meta_element_set_no": 999,
        "meta_rev_at_epoch": 511,
        "meta_bstar": 0.0011340685,
        "meta_mean_motion_dot": 0.00047394,
        "meta_mean_motion_ddot": 0,
        "tle_line1": "1 66504U 25263V   25343.94417130  .00047394  00000+0  11341-2 0  9993",
        "tle_line2": "2 66504  43.0001 142.7409 0001537 268.6806  91.3875 15.40719058  5110"
      },
      "geometry": {
        "type": "Point",
        "coordinates": [
          81.37832089870123,
          -37.62983500569388
        ]
      }
    },
    {
      "type": "Feature",
      "properties": {
        "norad_id": 66505,
        "name": "STARLINK-34766",
        "group": "last-30-days",
        "lat": 25.263568409519266,
        "lon": -74.60576026036264,
        "alt_km": 411.8734464522786,
        "timestamp": "2025-12-10T21:43:20.861704+00:00",
        "meta_object_name": "STARLINK-34766",
        "meta_object_id": "2025-263W",
        "meta_epoch": "2025-12-10T14:00:03.000384",
        "meta_mean_motion": 15.50635943,
        "meta_eccentricity": 0.00016304,
        "meta_inclination": 43.0007,
        "meta_ra_of_asc_node": 137.7024,
        "meta_arg_of_pericenter": 270.0578,
        "meta_mean_anomaly": 233.0232,
        "meta_ephemeris_type": 0,
        "meta_classification_type": "U",
        "meta_norad_cat_id": 66505,
        "meta_element_set_no": 999,
        "meta_rev_at_epoch": 529,
        "meta_bstar": -0.002511904,
        "meta_mean_motion_dot": -0.00145299,
        "meta_mean_motion_ddot": 0,
        "tle_line1": "1 66505U 25263W   25344.58336806 -.00145299  00000+0 -25119-2 0  9998",
        "tle_line2": "2 66505  43.0007 137.7024 0001630 270.0578 233.0232 15.50635943  5293"
      },
      "geometry": {
        "type": "Point",
        "coordinates": [
          -74.60576026036264,
          25.263568409519266
        ]
      }
    }
  ]
}